OBJECT_NAME,OBJECT_ID,EPOCH,MEAN_MOTION,ECCENTRICITY,INCLINATION,RA_OF_ASC_NODE,ARG_OF_PERICENTER,MEAN_ANOMALY,EPHEMERIS_TYPE,CLASSIFICATION_TYPE,NORAD_CAT_ID,ELEMENT_SET_NO,REV_AT_EPOCH,BSTAR,MEAN_MOTION_DOT,MEAN_MOTION_DDOT
TYVAK-0173,2021-059P,2026-07-10T03:43:49.194336,14.81962329,.00076078,96.0076,261.8029,320.8446,39.2220,0,U,48892,999,27164,.13227728E-3,.1017E-4,0
MANDRAKE 2 ABLE,2021-059AE,2026-07-09T11:56:26.685312,15.55902718,.00034894,97.7035,21.9981,260.3413,99.7446,0,U,48907,999,28059,.24681183E-3,.17009E-3,0
MANDRAKE 2 BAKER,2021-059AF,2026-07-09T11:45:55.058976,15.60746828,.00023153,97.6998,25.0210,247.5260,112.5751,0,U,48908,999,28077,.26830193E-3,.22206E-3,0
PACE-1,2021-059AG,2026-07-10T07:19:03.069696,15.84432732,.0003245,97.6752,32.1312,195.3984,164.7186,0,U,48909,999,28145,.43555024E-3,.99719E-3,0
YAM-3,2021-059AN,2026-07-10T06:16:28.807392,15.49072604,.00037614,97.6997,19.7334,268.1682,91.9137,0,U,48915,999,28056,.16838356E-3,.9034E-4,0
FARADAY_PHOENIX,2021-059AX,2026-07-08T11:24:02.258496,15.85017527,.00054025,97.6781,29.9740,217.7060,142.3832,0,U,48924,999,28102,.60440555E-3,.143131E-2,0
DEMO8 (TENZING),2021-059CA,2026-07-09T12:00:58.829760,15.55866744,.00053984,97.7022,25.6323,256.5290,103.5362,0,U,48951,999,28077,.22735381E-3,.15641E-3,0
FENGYUN 3E,2021-062A,2026-07-10T05:51:53.325216,14.19905921,.00024878,98.7504,194.3953,47.9587,312.1801,0,U,49008,999,25985,-.9415014E-5,-.64E-6,0
ISS (NAUKA),2021-066A,2026-07-10T03:41:07.908864,15.48965714,.00066838,51.6302,186.4276,277.8890,82.1339,0,U,49044,999,61024,.11035045E-3,.5628E-4,0
STARLINK-3100,2021-082Q,2026-07-10T03:20:29.065920,14.98332532,.00031563,70.0002,345.7073,268.4280,91.6518,0,U,49144,999,26432,.35327801E-4,.329E-5,0
CUTE,2021-088D,2026-07-09T05:23:24.956160,16.06292562,.00031551,97.4021,291.8248,340.4103,19.7057,0,U,49263,999,26607,.6160581E-3,.451648E-2,.98741303E-4
2021-091B,2021-091B,2026-07-10T07:40:28.033824,15.18666917,.00124172,97.4482,18.5440,326.6323,33.4127,0,U,49316,999,26249,.10159563E-3,.204E-4,0
SDGSAT 1,2021-100A,2026-07-10T06:49:08.027616,15.19220900,.00092472,97.2622,237.3507,179.7675,180.3566,0,U,49387,999,25942,.63505528E-4,.1273E-4,0
TEIKYOSAT-4 (OORURI),2021-102B,2026-07-10T07:42:24.526080,15.09587957,.00112641,97.3664,219.9051,206.1086,153.9577,0,U,49396,999,25621,.64803571E-4,.981E-5,0
Z-SAT,2021-102E,2026-07-10T06:20:20.322240,15.18437198,.00171784,97.3321,225.8872,160.7541,199.4346,0,U,49399,999,25694,.91960435E-4,.1833E-4,0
HIBARI,2021-102F,2026-07-10T01:31:09.463008,15.32206088,.0013255,97.3230,236.7104,117.0749,243.1847,0,U,49400,999,25769,.27302568E-3,.8436E-4,0
KOSEN-1,2021-102H,2026-07-10T01:51:17.866368,15.27165989,.00152228,97.3179,232.7922,123.6085,236.6609,0,U,49402,999,25751,.21006647E-3,.554E-4,0
GLOBAL-14,2021-106A,2026-07-09T22:39:12.712032,15.51645108,.00167998,42.0022,155.7272,188.6169,171.4389,0,U,49469,999,26166,.31133162E-3,.18818E-3,0
GAOFEN-3 02,2021-109A,2026-07-10T06:58:18.632352,14.42219987,.00014146,98.4097,199.0591,296.1190,63.9854,0,U,49495,999,24364,.40948115E-4,.91E-6,0
GLOBAL-12,2021-115BA,2026-07-09T21:36:24.546240,15.55093786,.00027155,53.1953,295.2135,65.9128,294.2168,0,U,49772,999,25943,.42534173E-3,.28752E-3,0
GLOBAL-13,2021-115BB,2026-07-09T22:23:10.324032,15.46970341,.00012292,53.1977,306.3894,154.7725,205.3344,0,U,49773,999,25928,.32059018E-3,.1603E-3,0
GLOBAL-17,2021-120A,2026-07-10T07:21:31.141152,15.53541201,.00135549,41.9947,271.4038,53.2824,306.9264,0,U,49949,999,25849,.3586278E-3,.23252E-3,0
GLOBAL-16,2021-120B,2026-07-10T06:54:13.403232,15.51325662,.00118736,41.9953,275.6920,41.7524,318.4225,0,U,49950,999,25843,.34574479E-3,.20638E-3,0
XW-3 (CAS-9),2021-131B,2026-07-10T07:26:12.240960,14.41378888,.00048409,98.4980,283.5752,43.2221,316.9347,0,U,50466,999,23844,.59410844E-4,.148E-5,0
ION SCV-004,2022-002K,2026-07-10T02:48:20.133216,15.30676881,.00055241,97.2825,248.3458,270.6723,89.3885,0,U,50993,999,24880,.12625436E-3,.3669E-4,0
ETV-A1,2022-002CE,2026-07-10T06:17:02.533632,15.41165284,.00035448,97.2870,257.5061,249.3914,110.6953,0,U,51060,999,24939,.19733727E-3,.8098E-4,0
BRO-5,2022-002CF,2026-07-10T06:19:15.521376,15.48683886,.00048629,97.2989,265.1553,222.5488,137.5387,0,U,51061,999,24982,.43022134E-3,.22975E-3,0
LUDI TANCE 1-01A (L-SAR 01A),2022-007A,2026-07-10T07:22:22.207872,14.88415789,.00015945,97.8109,198.3987,90.7842,269.3558,0,U,51284,999,24191,.4586094E-4,.371E-5,0
LUDI TANCE 1-01B (L-SAR 01B),2022-018A,2026-07-10T06:33:56.975904,14.88410273,.00016385,97.8108,198.3635,91.6849,268.4556,0,U,51822,999,23714,.44223162E-4,.356E-5,0
