TYVAK-0173              
1 48892U 21059P   26191.15543049  .00001017  00000+0  13228-3 0  9995
2 48892  96.0076 261.8029 0007607 320.8446  39.2220 14.81962329271649
MANDRAKE 2 ABLE         
1 48907U 21059AE  26190.49753108  .00017009  00000+0  24681-3 0  9990
2 48907  97.7035  21.9981 0003489 260.3413  99.7446 15.55902718280590
MANDRAKE 2 BAKER        
1 48908U 21059AF  26190.49022059  .00022206  00000+0  26830-3 0  9998
2 48908  97.6998  25.0210 0002315 247.5260 112.5751 15.60746828280779
PACE-1                  
1 48909U 21059AG  26191.30489664  .00099719  00000+0  43555-3 0  9995
2 48909  97.6752  32.1312 0003245 195.3984 164.7186 15.84432732281455
YAM-3                   
1 48915U 21059AN  26191.26144453  .00009034  00000+0  16838-3 0  9996
2 48915  97.6997  19.7334 0003761 268.1682  91.9137 15.49072604280562
FARADAY_PHOENIX         
1 48924U 21059AX  26189.47502614  .00143131  00000+0  60441-3 0  9999
2 48924  97.6781  29.9740 0005402 217.7060 142.3832 15.85017527281029
DEMO8 (TENZING)         
1 48951U 21059CA  26190.50068090  .00015641  00000+0  22735-3 0  9998
2 48951  97.7022  25.6323 0005398 256.5290 103.5362 15.55866744280776
FENGYUN 3E              
1 49008U 21062A   26191.24436719 -.00000064  00000+0 -94150-5 0  9992
2 49008  98.7504 194.3953 0002487  47.9587 312.1801 14.19905921259857
ISS (NAUKA)             
1 49044U 21066A   26191.15356376  .00005628  00000+0  11035-3 0  9994
2 49044  51.6302 186.4276 0006683 277.8890  82.1339 15.48965714610247
STARLINK-3100           
1 49144U 21082Q   26191.13922530  .00000329  00000+0  35328-4 0  9997
2 49144  70.0002 345.7073 0003156 268.4280  91.6518 14.98332532264324
CUTE                    
1 49263U 21088D   26190.22459440  .00451648  98741-4  61606-3 0  9994
2 49263  97.4021 291.8248 0003155 340.4103  19.7057 16.06292562266071
2021-091B               
1 49316U 21091B   26191.31976891  .00002040  00000+0  10160-3 0  9995
2 49316  97.4482  18.5440 0012417 326.6323  33.4127 15.18666917262494
SDGSAT 1                
1 49387U 21100A   26191.28412069  .00001273  00000+0  63506-4 0  9992
2 49387  97.2622 237.3507 0009247 179.7675 180.3566 15.19220900259422
TEIKYOSAT-4 (OORURI)    
1 49396U 21102B   26191.32111720  .00000981  00000+0  64804-4 0  9996
2 49396  97.3664 219.9051 0011264 206.1086 153.9577 15.09587957256211
Z-SAT                   
1 49399U 21102E   26191.26412410  .00001833  00000+0  91960-4 0  9992
2 49399  97.3321 225.8872 0017178 160.7541 199.4346 15.18437198256942
HIBARI                  
1 49400U 21102F   26191.06330397  .00008436  00000+0  27303-3 0  9991
2 49400  97.3230 236.7104 0013255 117.0749 243.1847 15.32206088257694
KOSEN-1                 
1 49402U 21102H   26191.07729012  .00005540  00000+0  21007-3 0  9998
2 49402  97.3179 232.7922 0015222 123.6085 236.6609 15.27165989257516
GLOBAL-14               
1 49469U 21106A   26190.94389713  .00018818  00000+0  31133-3 0  9993
2 49469  42.0022 155.7272 0016799 188.6169 171.4389 15.51645108261664
GAOFEN-3 02             
1 49495U 21109A   26191.29049343  .00000091  00000+0  40948-4 0  9995
2 49495  98.4097 199.0591 0001414 296.1190  63.9854 14.42219987243643
GLOBAL-12               
1 49772U 21115BA  26190.90028410  .00028752  00000+0  42534-3 0  9995
2 49772  53.1953 295.2135 0002715  65.9128 294.2168 15.55093786259434
GLOBAL-13               
1 49773U 21115BB  26190.93275838  .00016030  00000+0  32059-3 0  9994
2 49773  53.1977 306.3894 0001229 154.7725 205.3344 15.46970341259289
GLOBAL-17               
1 49949U 21120A   26191.30661043  .00023252  00000+0  35863-3 0  9994
2 49949  41.9947 271.4038 0013554  53.2824 306.9264 15.53541201258493
GLOBAL-16               
1 49950U 21120B   26191.28765513  .00020638  00000+0  34574-3 0  9993
2 49950  41.9953 275.6920 0011873  41.7524 318.4225 15.51325662258437
XW-3 (CAS-9)            
1 50466U 21131B   26191.30986390  .00000148  00000+0  59411-4 0  9992
2 50466  98.4980 283.5752 0004840  43.2221 316.9347 14.41378888238449
ION SCV-004             
1 50993U 22002K   26191.11689969  .00003669  00000+0  12625-3 0  9992
2 50993  97.2825 248.3458 0005524 270.6723  89.3885 15.30676881248806
ETV-A1                  
1 51060U 22002CE  26191.26183488  .00008098  00000+0  19734-3 0  9998
2 51060  97.2870 257.5061 0003544 249.3914 110.6953 15.41165284249390
BRO-5                   
1 51061U 22002CF  26191.26337409  .00022975  00000+0  43022-3 0  9990
2 51061  97.2989 265.1553 0004862 222.5488 137.5387 15.48683886249823
LUDI TANCE 1-01A (L-SA*)
1 51284U 22007A   26191.30720148  .00000371  00000+0  45861-4 0  9993
2 51284  97.8109 198.3987 0001594  90.7842 269.3558 14.88415789241910
LUDI TANCE 1-01B (L-SA*)
1 51822U 22018A   26191.27357611  .00000356  00000+0  44223-4 0  9994
2 51822  97.8108 198.3635 0001638  91.6849 268.4556 14.88410273237144
